{"type": "FeatureCollection", "features": [ {"type": "Feature", "properties": {"norad_id": 60453, "name": "LEGION 4", "group": "resource", "lat": 15.748902380804532, "lon": 67.6725209335792, "alt_km": 515.1799456144818, "timestamp": "2025-12-10T23:33:12.484659+00:00", "meta": {"OBJECT_NAME": "LEGION 4", "OBJECT_ID": "2024-146B", "EPOCH": "2025-12-10T13:57:51.478848", "MEAN_MOTION": 15.1578813, "ECCENTRICITY": 0.00096762, "INCLINATION": 45.0385, "RA_OF_ASC_NODE": 53.445, "ARG_OF_PERICENTER": 300.037, "MEAN_ANOMALY": 59.9549, "EPHEMERIS_TYPE": 0, "CLASSIFICATION_TYPE": "U", "NORAD_CAT_ID": 60453, "ELEMENT_SET_NO": 999, "REV_AT_EPOCH": 7225, "BSTAR": 0.00043040967, "MEAN_MOTION_DOT": 8.11e-05, "MEAN_MOTION_DDOT": 0}, "tle": {"line1": "1 60453U 24146B   25344.58184582  .00008110  00000+0  43041-3 0  9998", "line2": "2 60453  45.0385  53.4450 0009676 300.0370  59.9549 15.15788130 72253"}}, "geometry": {"type": "Point", "coordinates": [67.6725209335792, 15.748902380804532]}}, {"type": "Feature", "properties": {"norad_id": 60989, "name": "SENTINEL-2C", "group": "resource", "lat": -47.79305060456422, "lon": 67.05820899984766, "alt_km": 796.5092484583347, "timestamp": "2025-12-10T23:33:12.484668+00:00", "meta": {"OBJECT_NAME": "SENTINEL-2C", "OBJECT_ID": "2024-157A", "EPOCH": "2025-12-10T15:23:17.522592", "MEAN_MOTION": 14.30816364, "ECCENTRICITY": 0.00012079, "INCLINATION": 98.5684, "RA_OF_ASC_NODE": 57.154, "ARG_OF_PERICENTER": 97.9818, "MEAN_ANOMALY": 262.1502, "EPHEMERIS_TYPE": 0, "CLASSIFICATION_TYPE": "U", "NORAD_CAT_ID": 60989, "ELEMENT_SET_NO": 999, "REV_AT_EPOCH": 6602, "BSTAR": 0.000111802, "MEAN_MOTION_DOT": 2.49e-06, "MEAN_MOTION_DDOT": 0}, "tle": {"line1": "1 60989U 24157A   25344.64117503  .00000249  00000+0  11180-3 0  9994", "line2": "2 60989  98.5684  57.1540 0001207  97.9818 262.1502 14.30816364 66026"}}, "geometry": {"type": "Point", "coordinates": [67.05820899984766, -47.79305060456422]}}, {"type": "Feature", "properties": {"norad_id": 61735, "name": "IONOSFERA-M 1", "group": "resource", "lat": -81.21203142520189, "lon": -49.5515479234734, "alt_km": 823.8393750305722, "timestamp": "2025-12-10T23:33:12.484678+00:00", "meta": {"OBJECT_NAME": "IONOSFERA-M 1", "OBJECT_ID": "2024-199A", "EPOCH": "2025-12-10T15:32:26.260224", "MEAN_MOTION": 14.22713322, "ECCENTRICITY": 0.00010606, "INCLINATION": 98.7411, "RA_OF_ASC_NODE": 214.5118, "ARG_OF_PERICENTER": 24.855, "MEAN_ANOMALY": 335.2679, "EPHEMERIS_TYPE": 0, "CLASSIFICATION_TYPE": "U", "NORAD_CAT_ID": 61735, "ELEMENT_SET_NO": 999, "REV_AT_EPOCH": 10089, "BSTAR": 7.1642745e-05, "MEAN_MOTION_DOT": 1.16e-06, "MEAN_MOTION_DDOT": 0}, "tle": {"line1": "1 61735U 24199A   25344.64752616  .00000116  00000+0  71643-4 0  9994", "line2": "2 61735  98.7411 214.5118 0001060  24.8550 335.2679 14.22713322100897"}}, "geometry": {"type": "Point", "coordinates": [-49.5515479234734, -81.21203142520189]}}, {"type": "Feature", "properties": {"norad_id": 61736, "name": "IONOSFERA-M 2", "group": "resource", "lat": 81.07211423344816, "lon": 113.07182475221897, "alt_km": 807.6557073217209, "timestamp": "2025-12-10T23:33:12.484687+00:00", "meta": {"OBJECT_NAME": "IONOSFERA-M 2", "OBJECT_ID": "2024-199B", "EPOCH": "2025-12-10T14:41:03.610176", "MEAN_MOTION": 14.22715517, "ECCENTRICITY": 0.00015919, "INCLINATION": 98.7403, "RA_OF_ASC_NODE": 214.3889, "ARG_OF_PERICENTER": 113.4835, "MEAN_ANOMALY": 246.651, "EPHEMERIS_TYPE": 0, "CLASSIFICATION_TYPE": "U", "NORAD_CAT_ID": 61736, "ELEMENT_SET_NO": 999, "REV_AT_EPOCH": 10401, "BSTAR": 7.2068942e-05, "MEAN_MOTION_DOT": 1.17e-06, "MEAN_MOTION_DDOT": 0}, "tle": {"line1": "1 61736U 24199B   25344.61184734  .00000117  00000+0  72069-4 0  9996", "line2": "2 61736  98.7403 214.3889 0001591 113.4835 246.6510 14.22715517104017"}}, "geometry": {"type": "Point", "coordinates": [113.07182475221897, 81.07211423344816]}}, {"type": "Feature", "properties": {"norad_id": 63772, "name": "BIOMASS", "group": "resource", "lat": 0.6940993938213554, "lon": 169.91817747708492, "alt_km": 671.6132549894037, "timestamp": "2025-12-10T23:33:12.484696+00:00", "meta": {"OBJECT_NAME": "BIOMASS", "OBJECT_ID": "2025-090A", "EPOCH": "2025-12-10T12:05:44.472480", "MEAN_MOTION": 14.67538798, "ECCENTRICITY": 0.00012001, "INCLINATION": 98.07, "RA_OF_ASC_NODE": 169.5464, "ARG_OF_PERICENTER": 76.9658, "MEAN_ANOMALY": 283.1681, "EPHEMERIS_TYPE": 0, "CLASSIFICATION_TYPE": "U", "NORAD_CAT_ID": 63772, "ELEMENT_SET_NO": 999, "REV_AT_EPOCH": 3301, "BSTAR": 0.00039747987, "MEAN_MOTION_DOT": 2.207e-05, "MEAN_MOTION_DDOT": 0}, "tle": {"line1": "1 63772U 25090A   25344.50398695  .00002207  00000+0  39748-3 0  9998", "line2": "2 63772  98.0700 169.5464 0001200  76.9658 283.1681 14.67538798 33014"}}, "geometry": {"type": "Point", "coordinates": [169.91817747708492, 0.6940993938213554]}}, {"type": "Feature", "properties": {"norad_id": 64694, "name": "GOSAT-GW (IBUKI GW)", "group": "resource", "lat": -29.982005964193352, "lon": 95.84695758562403, "alt_km": 675.4715914722146, "timestamp": "2025-12-10T23:33:12.484705+00:00", "meta": {"OBJECT_NAME": "GOSAT-GW (IBUKI GW)", "OBJECT_ID": "2025-141A", "EPOCH": "2025-12-10T16:03:11.957760", "MEAN_MOTION": 14.67563399, "ECCENTRICITY": 0.0001479, "INCLINATION": 98.0424, "RA_OF_ASC_NODE": 280.2191, "ARG_OF_PERICENTER": 82.0451, "MEAN_ANOMALY": 278.0922, "EPHEMERIS_TYPE": 0, "CLASSIFICATION_TYPE": "U", "NORAD_CAT_ID": 64694, "ELEMENT_SET_NO": 999, "REV_AT_EPOCH": 2419, "BSTAR": 0.00041037, "MEAN_MOTION_DOT": 2.281e-05, "MEAN_MOTION_DDOT": 0}, "tle": {"line1": "1 64694U 25141A   25344.66888840  .00002281  00000+0  41037-3 0  9998", "line2": "2 64694  98.0424 280.2191 0001479  82.0451 278.0922 14.67563399 24191"}}, "geometry": {"type": "Point", "coordinates": [95.84695758562403, -29.982005964193352]}}, {"type": "Feature", "properties": {"norad_id": 64876, "name": "IONOSFERA-M 3", "group": "resource", "lat": 35.2790138310016, "lon": 133.0274120833913, "alt_km": 817.8349936286104, "timestamp": "2025-12-10T23:33:12.484714+00:00", "meta": {"OBJECT_NAME": "IONOSFERA-M 3", "OBJECT_ID": "2025-155A", "EPOCH": "2025-12-10T14:25:50.775168", "MEAN_MOTION": 14.21440186, "ECCENTRICITY": 0.00022827, "INCLINATION": 98.5779, "RA_OF_ASC_NODE": 306.528, "ARG_OF_PERICENTER": 63.3798, "MEAN_ANOMALY": 296.7613, "EPHEMERIS_TYPE": 0, "CLASSIFICATION_TYPE": "U", "NORAD_CAT_ID": 64876, "ELEMENT_SET_NO": 999, "REV_AT_EPOCH": 1961, "BSTAR": 9.0472726e-05, "MEAN_MOTION_DOT": 1.55e-06, "MEAN_MOTION_DDOT": 0}, "tle": {"line1": "1 64876U 25155A   25344.60128212  .00000155  00000+0  90473-4 0  9996", "line2": "2 64876  98.5779 306.5280 0002282  63.3798 296.7613 14.21440186 19614"}}, "geometry": {"type": "Point", "coordinates": [133.0274120833913, 35.2790138310016]}}, {"type": "Feature", "properties": {"norad_id": 64877, "name": "IONOSFERA-M 4", "group": "resource", "lat": -34.87280856834712, "lon": -47.145118617414454, "alt_km": 826.8812012652788, "timestamp": "2025-12-10T23:33:12.484723+00:00", "meta": {"OBJECT_NAME": "IONOSFERA-M 4", "OBJECT_ID": "2025-155B", "EPOCH": "2025-12-10T15:16:20.619264", "MEAN_MOTION": 14.21441316, "ECCENTRICITY": 0.00016358, "INCLINATION": 98.5779, "RA_OF_ASC_NODE": 306.4816, "ARG_OF_PERICENTER": 65.4804, "MEAN_ANOMALY": 294.6544, "EPHEMERIS_TYPE": 0, "CLASSIFICATION_TYPE": "U", "NORAD_CAT_ID": 64877, "ELEMENT_SET_NO": 999, "REV_AT_EPOCH": 1961, "BSTAR": 9.7183218e-05, "MEAN_MOTION_DOT": 1.7e-06, "MEAN_MOTION_DDOT": 0}, "tle": {"line1": "1 64877U 25155B   25344.63634976  .00000170  00000+0  97183-4 0  9991", "line2": "2 64877  98.5779 306.4816 0001635  65.4804 294.6544 14.21441316 19617"}}, "geometry": {"type": "Point", "coordinates": [-47.145118617414454, -34.87280856834712]}}, {"type": "Feature", "properties": {"norad_id": 64899, "name": "MICROCARB", "group": "resource", "lat": 20.153582255845297, "lon": -116.68535759738268, "alt_km": 642.7911863408181, "timestamp": "2025-12-10T23:33:12.484732+00:00", "meta": {"OBJECT_NAME": "MICROCARB", "OBJECT_ID": "2025-156A", "EPOCH": "2025-12-10T11:24:43.686432", "MEAN_MOTION": 14.72051398, "ECCENTRICITY": 0.00169939, "INCLINATION": 98.0027, "RA_OF_ASC_NODE": 59.8573, "ARG_OF_PERICENTER": 151.6728, "MEAN_ANOMALY": 208.5407, "EPHEMERIS_TYPE": 0, "CLASSIFICATION_TYPE": "U", "NORAD_CAT_ID": 64899, "ELEMENT_SET_NO": 999, "REV_AT_EPOCH": 2020, "BSTAR": 0.00019897453, "MEAN_MOTION_DOT": 1.203e-05, "MEAN_MOTION_DDOT": 0}, "tle": {"line1": "1 64899U 25156A   25344.47550563  .00001203  00000+0  19897-3 0  9990", "line2": "2 64899  98.0027  59.8573 0016993 151.6728 208.5407 14.72051398 20209"}}, "geometry": {"type": "Point", "coordinates": [-116.68535759738268, 20.153582255845297]}}, {"type": "Feature", "properties": {"norad_id": 64900, "name": "CO3D 3", "group": "resource", "lat": -74.9095235395454, "lon": -147.5884797231823, "alt_km": 513.3444204003908, "timestamp": "2025-12-10T23:33:12.484741+00:00", "meta": {"OBJECT_NAME": "CO3D 3", "OBJECT_ID": "2025-156B", "EPOCH": "2025-12-10T14:31:42.844800", "MEAN_MOTION": 15.20212255, "ECCENTRICITY": 0.00013169, "INCLINATION": 97.4339, "RA_OF_ASC_NODE": 61.0032, "ARG_OF_PERICENTER": 100.0149, "MEAN_ANOMALY": 260.1234, "EPHEMERIS_TYPE": 0, "CLASSIFICATION_TYPE": "U", "NORAD_CAT_ID": 64900, "ELEMENT_SET_NO": 999, "REV_AT_EPOCH": 2088, "BSTAR": 0.00072414327, "MEAN_MOTION_DOT": 0.00015646, "MEAN_MOTION_DDOT": 0}, "tle": {"line1": "1 64900U 25156B   25344.60535700  .00015646  00000+0  72414-3 0  9994", "line2": "2 64900  97.4339  61.0032 0001316 100.0149 260.1234 15.20212255 20885"}}, "geometry": {"type": "Point", "coordinates": [-147.5884797231823, -74.9095235395454]}}]}